0 SKYMED 3
1 33412U 08054A   13282.49796858  .00000731  00000-0  98379-4 0  4358
2 33412 097.8739 105.8875 0001443 084.9559 275.1822 14.82162156268171
0 SKYMED 3
1 33412U 08054A   13282.83551980  .00000580  00000-0  79422-4 0  4362
2 33412 097.8738 106.2197 0001457 083.6993 276.4378 14.82162002268221
0 SKYMED 3
1 33412U 08054A   13283.17307128  .00000515  00000-0  71271-4 0  4376
2 33412 097.8740 106.5520 0001404 081.4186 278.7185 14.82162036268272
0 SKYMED 3
1 33412U 08054A   13283.37560196  .00000479  00000-0  66735-4 0  4383
2 33412 097.8742 106.7512 0001400 082.3348 277.8017 14.82162043268309
0 SKYMED 3
1 33412U 08054A   13283.64564317  .00000420  00000-0  59345-4 0  4387
2 33412 097.8741 107.0169 0001433 080.7041 279.4337 14.82162100268349
0 SKYMED 3
1 33412U 08054A   13283.78066355  .00000410  00000-0  58065-4 0  4399
2 33412 097.8742 107.1499 0001426 080.3278 279.8097 14.82162200268367
0 SKYMED 3
1 33412U 08054A   13284.18572497  .00000292  00000-0  43173-4 0  4407
2 33412 097.8745 107.5486 0001396 081.7730 278.3616 14.82161731268420
0 SKYMED 3
1 33412U 08054A   13284.52327650  .00000239  00000-0  36521-4 0  4415
2 33412 097.8746 107.8807 0001385 082.8666 277.2707 14.82161827268479
0 SKYMED 3
1 33412U 08054A   13285.46841845  .00000466  00000-0  65025-4 0  4442
2 33412 097.8751 108.8107 0001360 083.7021 276.4363 14.82163731268618
0 SKYMED 3
1 33412U 08054A   13285.80596857  .00000568  00000-0  77860-4 0  4454
2 33412 097.8751 109.1431 0001372 085.5782 274.5604 14.82164667268660
0 SKYMED 3
1 33412U 08054A   13286.21102869  .00000664  00000-0  89932-4 0  4467
2 33412 097.8752 109.5419 0001401 084.3085 275.8282 14.82165490268725
0 SKYMED 3
1 33412U 08054A   13286.54857876  .00000784  00000-0  10493-3 0  4477
2 33412 097.8753 109.8739 0001372 084.4106 275.7286 14.82166728268779
0 SKYMED 3
1 33412U 08054A   13286.88612832  .00000778  00000-0  10425-3 0  4484
2 33412 097.8755 110.2061 0001376 083.6805 276.4567 14.82167293268820
0 SKYMED 3
1 33412U 08054A   13287.22367831  .00000639  00000-0  86730-4 0  4499
2 33412 097.8755 110.5383 0001358 082.8981 277.2342 14.82166795268877
0 SKYMED 3
1 33412U 08054A   13287.56122903  .00000615  00000-0  83778-4 0  4500
2 33412 097.8752 110.8707 0001339 085.7138 274.4231 14.82167173268925
0 SKYMED 3
1 33412U 08054A   13287.83126896  .00000554  00000-0  76142-4 0  4515
2 33412 097.8751 111.1363 0001336 086.0617 274.0746 14.82167262268969
0 SKYMED 3
1 33412U 08054A   13288.16881929  .00000288  00000-0  42715-4 0  4521
2 33412 097.8749 111.4683 0001318 088.5081 271.6244 14.82166116269016
0 SKYMED 3
1 33412U 08054A   13288.50637043  .00000180  00000-0  29149-4 0  4533
2 33412 097.8747 111.8006 0001326 088.5758 271.5606 14.82165858269065
0 SKYMED 3
1 33412U 08054A   13288.84392089  .00000068  00000-0  15104-4 0  4540
2 33412 097.8746 112.1329 0001329 087.6234 272.5135 14.82165585269119
0 SKYMED 3
1 33412U 08054A   13289.18147133 -.00000053  00000-0 -93457-7 0  4553
2 33412 097.8744 112.4647 0001341 089.6526 270.4823 14.82164945269168
0 SKYMED 3
1 33412U 08054A   13289.51902195 -.00000059  00000-0 -92561-6 0  4568
2 33412 097.8741 112.7973 0001353 089.2477 270.8899 14.82165084269212
0 SKYMED 3
1 33412U 08054A   13289.85657214 -.00000045  00000-0  90464-6 0  4579
2 33412 097.8741 113.1297 0001374 090.0613 270.0771 14.82165304269262
0 SKYMED 3
1 33412U 08054A   13290.19412218  .00000027  00000-0  98725-5 0  4588
2 33412 097.8738 113.4616 0001366 089.4297 270.7074 14.82165587269319
0 SKYMED 3
1 33412U 08054A   13290.39665233  .00000201  00000-0  31759-4 0  4595
2 33412 097.8737 113.6608 0001361 091.1735 268.9681 14.82166592269346
0 SKYMED 3
1 33412U 08054A   13290.73420142  .00000258  00000-0  38939-4 0  4602
2 33412 097.8736 113.9929 0001350 091.1752 268.9630 14.82167121269399
0 SKYMED 3
1 33412U 08054A   13290.86922114  .00000356  00000-0  51296-4 0  4613
2 33412 097.8736 114.1260 0001441 095.9959 264.1445 14.82167732269415
0 SKYMED 3
1 33412U 08054A   13291.20677037  .00000571  00000-0  78206-4 0  4623
2 33412 097.8737 114.4582 0001497 094.7697 265.3706 14.82168964269469
0 SKYMED 3
1 33412U 08054A   13291.54431878  .00000779  00000-0  10441-3 0  4638
2 33412 097.8735 114.7905 0001444 094.8513 265.2895 14.82170674269514
0 SKYMED 3
1 33412U 08054A   13291.88186719  .00000837  00000-0  11168-3 0  4649
2 33412 097.8732 115.1228 0001436 093.5917 266.5467 14.82171572269561
0 SKYMED 3
1 33412U 08054A   13292.21941589  .00000886  00000-0  11771-3 0  4656
2 33412 097.8732 115.4550 0001434 090.9505 269.1854 14.82172191269617
0 SKYMED 3
1 33412U 08054A   13292.55696473  .00000908  00000-0  12055-3 0  4664
2 33412 097.8731 115.7875 0001447 091.2958 268.8413 14.82172942269665
0 SKYMED 3
1 33412U 08054A   13292.82700378  .00000877  00000-0  11661-3 0  4672
2 33412 097.8731 116.0531 0001455 091.3722 268.7656 14.82173302269701
0 SKYMED 3
1 33412U 08054A   13293.16455254  .00000811  00000-0  10835-3 0  4681
2 33412 097.8732 116.3853 0001406 089.8891 270.2468 14.82173416269757
0 SKYMED 3
1 33412U 08054A   13293.56961108  .00000716  00000-0  96392-4 0  4693
2 33412 097.8732 116.7840 0001415 089.2083 270.9279 14.82173607269810
0 SKYMED 3
1 33412U 08054A   13293.83965041  .00000549  00000-0  75458-4 0  4709
2 33412 097.8731 117.0496 0001380 086.4370 273.6980 14.82173116269857
0 SKYMED 3
1 33412U 08054A   13294.17720115  .00000123  00000-0  21957-4 0  4712
2 33412 097.8736 117.3817 0001319 088.6854 271.4485 14.82170807269901
0 SKYMED 3
1 33412U 08054A   13294.51475534 -.00000879  00000-0 -10389-3 0  4729
2 33412 097.8739 117.7145 0001565 094.2377 265.8972 14.82164920269950
0 SKYMED 3
1 33412U 08054A   13294.85230795 -.00001581  00000-0 -19213-3 0  4731
2 33412 097.8735 118.0462 0001539 088.7284 271.4020 14.82160632270009
0 SKYMED 3
1 33412U 08054A   13295.18986274 -.00002568  00000-0 -31616-3 0  4746
2 33412 097.8741 118.3786 0001461 086.6239 273.5013 14.82154029270052
0 SKYMED 3
1 33412U 08054A   13295.52742001 -.00003280  00000-0 -40574-3 0  4758
2 33412 097.8739 118.7113 0001504 089.2089 270.9320 14.82149325270108
0 SKYMED 3
1 33412U 08054A   13295.86497391 -.00003519  00000-0 -43589-3 0  4769
2 33412 097.8737 119.0434 0001505 091.7507 268.3881 14.82146314270153
0 SKYMED 3
1 33412U 08054A   13296.20252800 -.00003279  00000-0 -40566-3 0  4778
2 33412 097.8737 119.3757 0001550 092.8287 267.3135 14.82145550270209
